CHINASAT 16 (SJ-13)     
1 42662U 17018A   25208.28712413 -.00000361  00000+0  00000+0 0  9991
2 42662   0.0386  96.8462 0005220 123.8549 298.3811  1.00270360 30481
KOREASAT 7              
1 42691U 17023A   25208.57376561 -.00000370  00000+0  00000+0 0  9991
2 42691   0.0307  45.3691 0000944  82.8026 139.7707  1.00271591 30110
SGDC                    
1 42692U 17023B   25208.35993536 -.00000258  00000+0  00000+0 0  9990
2 42692   0.0123  65.8846 0002306  78.7681 215.3411  1.00272654 30148
GSAT-9                  
1 42695U 17024A   25208.57003894 -.00000294  00000+0  00000+0 0  9997
2 42695   0.0892 269.5511 0002046 229.1637 109.2608  1.00268817 30044
INMARSAT 5-F4           
1 42698U 17025A   25208.49060971  .00000067  00000+0  00000+0 0  9998
2 42698   0.0180  55.6529 0000397 134.0872 348.7818  1.00271378 30029
SES-15                  
1 42709U 17026A   25207.95413483  .00000051  00000+0  00000+0 0  9995
2 42709   0.0203   2.5355 0000209 139.3175  17.3368  1.00268615  4178
QZS-2 (MICHIBIKI-2)     
1 42738U 17028A   25205.43978481 -.00000135  00000+0  00000+0 0  9998
2 42738  39.9350 247.9436 0756714 269.6568  85.3619  1.00274714  4341
VIASAT-2                
1 42740U 17029A   25208.17996182 -.00000274  00000+0  00000+0 0  9998
2 42740   0.0278 286.4472 0000322 272.7869 100.7099  1.00271298 29947
EUTELSAT 172B           
1 42741U 17029B   25208.54767098 -.00000014  00000+0  00000+0 0  9994
2 42741   0.0178 144.1609 0000048 245.3577 285.0926  1.00271921 30475
GSAT-19                 
1 42747U 17031A   25208.56022141  .00000117  00000+0  00000+0 0  9991
2 42747   0.0205  61.4697 0005968  57.0069  76.5503  1.00270667 29883
ECHOSTAR 21             
1 42749U 17032A   25208.55268138  .00000059  00000+0  00000+0 0  9996
2 42749   1.9503 335.7528 0002160 151.7859  27.1474  1.00273569 29845
BULGARIASAT-1           
1 42801U 17038A   25208.33697586  .00000002  00000+0  00000+0 0  9998
2 42801   0.0305  71.7771 0002626  54.7320 301.9498  1.00270449 29576
HELLAS-SAT 3            
1 42814U 17040A   25208.55848808  .00000144  00000+0  00000+0 0  9991
2 42814   0.0601  58.2309 0003064  11.7235 115.5642  1.00269904 29553
GSAT-17                 
1 42815U 17040B   25208.62244939 -.00000266  00000+0  00000+0 0  9991
2 42815   0.0498 263.8772 0002151   2.7003 356.5443  1.00273823 29534
INTELSAT 35E (IS-35E)   
1 42818U 17041A   25208.47249628 -.00000246  00000+0  00000+0 0  9996
2 42818   0.0178  84.8225 0001917  50.6012 305.5876  1.00267931 29556
COSMOS 2520             
1 42907U 17046A   25206.12614127  .00000125  00000+0  00000+0 0  9995
2 42907   0.0359 104.9949 0000585  21.6624 266.7973  1.00270241 29116
TDRS 13                 
1 42915U 17047A   25208.40571458 -.00000106  00000+0  00000+0 0  9997
2 42915   3.4363 354.3528 0015741 117.9469 327.4834  1.00272182 29091
QZS-3 (MICHIBIKI-3)     
1 42917U 17048A   25208.57594039 -.00000356  00000+0  00000+0 0  9995
2 42917   0.0819 229.6255 0001790 251.4088 158.7850  1.00275682 29005
AMAZONAS 5              
1 42934U 17053A   25208.18178183 -.00000291  00000+0  00000+0 0  9993
2 42934   0.0381 316.7849 0001120 159.0850 193.6462  1.00271902 28784
ASIASAT 9               
1 42942U 17057A   25208.49667977 -.00000368  00000+0  00000+0 0  9999
2 42942   0.0166  67.0271 0002256  50.7334 128.5677  1.00270480 28600
INTELSAT 37E (IS-37E)   
1 42950U 17059A   25208.40441458 -.00000149  00000+0  00000+0 0  9992
2 42950   0.0159  86.7853 0002685  48.4973 297.6244  1.00272613 28804
BSAT-4A                 
1 42951U 17059B   25208.63095902 -.00000358  00000+0  00000+0 0  9999
2 42951   0.0300   2.5862 0003041  85.4360 194.4887  1.00269607 28544
QZS-4 (MICHIBIKI-4)     
1 42965U 17062A   25191.30171324 -.00000335  00000+0  00000+0 0  9991
2 42965  40.3162 347.8530 0744959 271.9338 271.5595  1.00244399 28382
SES-11 (ECHOSTAR 105)   
1 42967U 17063A   25208.47011880 -.00000097  00000+0  00000+0 0  9996
2 42967   0.0116  19.8068 0002467  96.9028 252.9511  1.00271793 28468
KOREASAT 5A             
1 42984U 17067A   25208.57315895 -.00000366  00000+0  00000+0 0  9992
2 42984   0.0125  58.3421 0001219  62.9854 143.6385  1.00273022 28273
ALCOMSAT 1              
1 43039U 17078A   25208.47440296 -.00000194  00000+0  00000+0 0  9998
2 43039   0.0545 235.1390 0002092 266.8079 309.4233  1.00270442 28036
SBIRS GEO-3 (USA 282)   
1 43162U 18009A   25208.56919852  .00000122  00000+0  00000+0 0  9999
2 43162   2.0862 355.1371 0001583 132.5989 223.2511  1.00272478 27584
AL YAH 3                
1 43174U 18012A   25208.40398124 -.00000164  00000+0  00000+0 0  9999
2 43174   0.7093  87.4116 0003463  25.0375 318.1976  1.00271176 27587
SES-14                  
1 43175U 18012B   25207.97027654 -.00000288  00000+0  00000+0 0  9995
2 43175   0.0118  26.2481 0001001 121.0467  99.3755  1.00266696  3768
GOES 17                 
1 43226U 18022A   25208.53300795 -.00000190  00000+0  00000+0 0  9998
2 43226   0.1007  99.6961 0001688 143.0254 165.1032  1.00271608 27168
HISPASAT 30W-6          
1 43228U 18023A   25208.40207457 -.00000224  00000+0  00000+0 0  9996
2 43228   0.0375  48.0420 0004734  55.0398 316.9889  1.00273060 27149
SUPERBIRD-B3            
1 43271U 18033A   25208.22598203 -.00000102  00000+0  00000+0 0  9992
2 43271   0.0119  69.8548 0000836  55.7634  62.8552  1.00270738 26809
HYLAS 4                 
1 43272U 18033B   25208.11581127 -.00000243  00000+0  00000+0 0  9994
2 43272   0.0474 263.0809 0000951 272.8807 137.1467  1.00271340 26816
IRNSS-1I                
1 43286U 18035A   25207.70528887  .00000064  00000+0  00000+0 0  9999
2 43286  28.8195  79.2669 0018132 178.0588 356.2960  1.00276361 26813
USA 283                 
1 43339U 18036A   25206.52594545 -.00000329  00000+0  00000+0 0  9997
2 43339   0.0180  91.7340 0000083 115.9566  59.1934  1.00270639  4127
COSMOS 2526             
1 43432U 18037A   25208.57611373 -.00000352  00000+0  00000+0 0  9994
2 43432   0.0267 101.3762 0000732 182.2285 357.3416  1.00275967 26715
APSTAR-6C               
1 43450U 18041A   25208.51884675 -.00000326  00000+0  00000+0 0  9991
2 43450   0.0526 284.5642 0001136 323.1638  18.4912  1.00273798 26559
BANGABANDHUSAT-1        
1 43463U 18044A   25208.57411228 -.00000371  00000+0  00000+0 0  9994
2 43463   0.0152 124.3128 0002584  22.7776 124.1681  1.00272001 26454
SES-12                  
1 43488U 18049A   25208.35543595 -.00000278  00000+0  00000+0 0  9991
2 43488   0.0104  30.6733 0000937 218.0083 279.5329  1.00272397 26160
FENGYUN 2H              
1 43491U 18050A   25208.56648558 -.00000138  00000+0  00000+0 0  9990
2 43491   2.1924  82.9852 0002107 121.5604  24.1093  1.00274087 26189
BEIDOU-2 IGSO-7         
1 43539U 18057A   25202.89613862 -.00000109  00000+0  00000+0 0  9998
2 43539  55.1702 165.9162 0089792 236.5057 329.0183  1.00246208 25814
TELSTAR 19V             
1 43562U 18059A   25208.53829465 -.00000288  00000+0  00000+0 0  9999
2 43562   0.0263 160.0646 0002774 329.3225 306.8311  1.00271536 25882
TELKOM 4 (MERAH PUTIH)  
1 43587U 18064A   25208.49990804 -.00000352  00000+0  00000+0 0  9995
2 43587   0.0174  75.1545 0001071  49.5156 108.6980  1.00271006 25621
TELSTAR 18V             
1 43611U 18069A   25208.59191697 -.00000302  00000+0  00000+0 0  9997
2 43611   0.0090  23.0640 0002124 105.3225 168.1979  1.00271804 25379
AZERSPACE 2 (IS-38)     
1 43632U 18074A   25208.55970141  .00000128  00000+0  00000+0 0  9996
2 43632   0.0179  74.7924 0001252  49.3811  67.9192  1.00269307 25195
HORIZONS-3E             
1 43633U 18074B   25208.54767098 -.00000039  00000+0  00000+0 0  9993
2 43633   0.0583 234.0325 0001335  48.1983  29.3846  1.00271009 25088
AEHF-4 (USA 288)        
1 43651U 18079A   25208.53742797 -.00000281  00000+0  00000+0 0  9995
2 43651   1.4649 346.9227 0047596   4.2651  80.0889  1.00277969 25042
BEIDOU-3 G1             
1 43683U 18085A   25208.59191697 -.00000287  00000+0  00000+0 0  9996
2 43683   2.7649 107.0173 0004078 359.7592 191.8612  1.00269558 24800
GSAT-29                 
1 43698U 18089A   25208.56171890  .00000077  00000+0  00000+0 0  9992
2 43698   0.0198  64.2648 0002614  47.3019  91.1999  1.00269425 24549
ES'HAIL 2               
1 43700U 18090A   25208.55588807  .00000136  00000+0  00000+0 0  9993
2 43700   0.0180  78.2925 0001014  46.4123  46.6539  1.00271152 24428
GEO-KOMPSAT-2A          
1 43823U 18100A   25208.49415821 -.00000352  00000+0  00000+0 0  9990
2 43823   0.0214 136.6309 0002067 326.3358 148.5935  1.00271727 24370
GSAT-11                 
1 43824U 18100B   25208.56544558 -.00000085  00000+0  00000+0 0  9992
2 43824   0.0857 269.3086 0007791 190.7362 122.9906  1.00272468 24228
GSAT-7A                 
1 43864U 18105A   25208.56319223  .00000018  00000+0  00000+0 0  9995
2 43864   0.0869 267.8002 0001664 188.7083 114.4656  1.00271984 24192
COSMOS 2533             
1 43867U 18107A   25208.56466558 -.00000048  00000+0  00000+0 0  9998
2 43867   0.0283 115.3606 0000759 354.1729 109.2003  1.00277352 24184
TJS-3                   
1 43874U 18110A   25208.70524047  .00000049  00000+0  00000+0 0  9994
2 43874   1.7051  84.5090 0002145  28.7483 145.2233  1.00270021 24225
ZHONGXING-2D            
1 43920U 19001A   25208.57654706 -.00000345  00000+0  00000+0 0  9997
2 43920   0.0246 161.2239 0001900  53.1282  68.6901  1.00269764 50827
HELLAS-SAT 4 & SGS-1    
1 44034U 19007A   25208.48714302  .00000144  00000+0  00000+0 0  9995
2 44034   0.0681 123.5931 0005911  27.2459   8.9337  1.00271222 24105
GSAT-31                 
1 44035U 19007B   25208.56022141  .00000117  00000+0  00000+0 0  9998
2 44035   0.0101 294.1701 0001802 283.6580 337.1816  1.00271571 23713
NUSANTARA SATU          
1 44048U 19009A   25208.52250559 -.00000243  00000+0  00000+0 0  9997
2 44048   0.0250 122.5527 0004690   8.8114 148.1730  1.00271738 23507
